ONEWEB-0697             
1 61603U 24188K   25127.47851053 -.00000122  00000+0 -38091-3 0  9999
2 61603  87.8784 101.9706 0001824 111.7501 248.3822 13.11412952 29554
ONEWEB-0698             
1 61604U 24188L   25126.99869814  .00000606  00000+0  16749-2 0  9990
2 61604  87.8798 102.0700 0001057 107.0089 253.1155 13.11419750 29278
ONEWEB-0699             
1 61605U 24188M   25126.99360928 -.00000551  00000+0 -16135-2 0  9993
2 61605  87.8787 117.2417 0001566  93.4532 266.6775 13.10370858 28243
ONEWEB-0700             
1 61606U 24188N   25126.99527522 -.00000592  00000+0 -17328-2 0  9999
2 61606  87.8702 117.1908 0002317 105.6738 254.4645 13.10372255 28293
ONEWEB-0701             
1 61607U 24188P   25127.01185375 -.00000515  00000+0 -15123-2 0  9996
2 61607  87.8794 117.2451 0001788 113.0448 247.0868 13.10375059 28448
ONEWEB-0702             
1 61608U 24188Q   25126.96818816 -.00000314  00000+0 -92256-3 0  9993
2 61608  87.8731 102.0861 0002118 112.7464 247.3888 13.11419694 29327
ONEWEB-0704             
1 61609U 24188R   25127.00024800 -.00000610  00000+0 -17840-2 0  9996
2 61609  87.8818 117.1658 0002277 114.2361 245.9004 13.10372728 28243
ONEWEB-0705             
1 61610U 24188S   25127.00522827 -.00000693  00000+0 -20215-2 0  9991
2 61610  87.8779 117.2388 0002989 103.1419 257.0042 13.10374221 28407
